[{"OBJECT_NAME":"STARLINK-32532","OBJECT_ID":"2024-224T","EPOCH":"2026-03-09T23:08:33.570816","MEAN_MOTION":15.27591209,"ECCENTRICITY":5.561e-5,"INCLINATION":42.9995,"RA_OF_ASC_NODE":156.4155,"ARG_OF_PERICENTER":33.602,"MEAN_ANOMALY":326.4867,"EPHEMERIS_TYPE":0,"CLASSIFICATION_TYPE":"U","NORAD_CAT_ID":62156,"ELEMENT_SET_NO":999,"REV_AT_EPOCH":7236,"BSTAR":0.00084088698,"MEAN_MOTION_DOT":0.00022957,"MEAN_MOTION_DDOT":0},{"OBJECT_NAME":"HERMES-2","OBJECT_ID":"2025-052AK","EPOCH":"2026-03-09T22:17:00.130272","MEAN_MOTION":15.28021069,"ECCENTRICITY":0.00063399,"INCLINATION":97.4004,"RA_OF_ASC_NODE":324.4926,"ARG_OF_PERICENTER":99.416,"MEAN_ANOMALY":260.7796,"EPHEMERIS_TYPE":0,"CLASSIFICATION_TYPE":"U","NORAD_CAT_ID":63243,"ELEMENT_SET_NO":999,"REV_AT_EPOCH":5485,"BSTAR":0.00034839454,"MEAN_MOTION_DOT":9.456e-5,"MEAN_MOTION_DDOT":0}]
